[{"OBJECT_NAME":"STARLINK-5388","OBJECT_ID":"2022-177AA","EPOCH":"2026-03-09T05:41:58.864704","MEAN_MOTION":15.02516299,"ECCENTRICITY":0.00018359,"INCLINATION":43.0043,"RA_OF_ASC_NODE":135.2216,"ARG_OF_PERICENTER":281.4975,"MEAN_ANOMALY":78.5661,"EPHEMERIS_TYPE":0,"CLASSIFICATION_TYPE":"U","NORAD_CAT_ID":54844,"ELEMENT_SET_NO":999,"REV_AT_EPOCH":17689,"BSTAR":0.00013969843,"MEAN_MOTION_DOT":1.683e-5,"MEAN_MOTION_DDOT":0},{"OBJECT_NAME":"CZ-6A DEB","OBJECT_ID":"2022-151AFF","EPOCH":"2026-03-08T15:34:13.969920","MEAN_MOTION":15.07686186,"ECCENTRICITY":0.00385412,"INCLINATION":98.6214,"RA_OF_ASC_NODE":147.2095,"ARG_OF_PERICENTER":177.326,"MEAN_ANOMALY":182.8178,"EPHEMERIS_TYPE":0,"CLASSIFICATION_TYPE":"U","NORAD_CAT_ID":56631,"ELEMENT_SET_NO":999,"REV_AT_EPOCH":15333,"BSTAR":0.0088285077,"MEAN_MOTION_DOT":0.00139408,"MEAN_MOTION_DDOT":0}]
